{
    "links": {
        "self": "http://www.neowsapp.com/rest/v1/neo/54051327?api_key=iIulBulltgU6a56xZRHN4H3l9WmuAYTsLGpBGhQ2"
    },
    "id": "54051327",
    "neo_reference_id": "54051327",
    "name": "(2020 QG4)",
    "designation": "2020 QG4",
    "nasa_jpl_url": "http://ssd.jpl.nasa.gov/sbdb.cgi?sstr=54051327",
    "absolute_magnitude_h": 23.656,
    "estimated_diameter": {
        "kilometers": {
            "estimated_diameter_min": 0.0493577071,
            "estimated_diameter_max": 0.1103671883
        },
        "meters": {
            "estimated_diameter_min": 49.3577071176,
            "estimated_diameter_max": 110.3671883285
        },
        "miles": {
            "estimated_diameter_min": 0.0306694478,
            "estimated_diameter_max": 0.0685789702
        },
        "feet": {
            "estimated_diameter_min": 161.9347398198,
            "estimated_diameter_max": 362.0970861557
        }
    },
    "is_potentially_hazardous_asteroid": false,
    "close_approach_data": [
        {
            "close_approach_date": "2020-09-10",
            "close_approach_date_full": "2020-Sep-10 15:06",
            "epoch_date_close_approach": 1599750360000,
            "relative_velocity": {
                "kilometers_per_second": "5.0561017539",
                "kilometers_per_hour": "18201.9663142019",
                "miles_per_hour": "11309.9940133995"
            },
            "miss_distance": {
                "astronomical": "0.2678327038",
                "lunar": "104.1869217782",
                "kilometers": "40067202.004820906",
                "miles": "24896604.8548882628"
            },
            "orbiting_body": "Earth"
        }
    ],
    "orbital_data": {
        "orbit_id": "5",
        "orbit_determination_date": "2020-09-16 07:58:36",
        "first_observation_date": "2020-08-19",
        "last_observation_date": "2020-09-16",
        "data_arc_in_days": 28,
        "observations_used": 29,
        "orbit_uncertainty": "7",
        "minimum_orbit_intersection": ".267265",
        "jupiter_tisserand_invariant": "3.904",
        "epoch_osculation": "2459000.5",
        "eccentricity": ".3258251813217206",
        "semi_major_axis": "1.865689794836625",
        "inclination": "9.931643209362253",
        "ascending_node_longitude": "329.6644689287129",
        "orbital_period": "930.8025852606909",
        "perihelion_distance": "1.257801079143898",
        "perihelion_argument": "32.09315704067244",
        "aphelion_distance": "2.473578510529352",
        "perihelion_time": "2459120.944677828279",
        "mean_anomaly": "313.4164551057445",
        "mean_motion": ".3867629996957673",
        "equinox": "J2000",
        "orbit_class": {
            "orbit_class_type": "AMO",
            "orbit_class_description": "Near-Earth asteroid orbits similar to that of 1221 Amor",
            "orbit_class_range": "1.017 AU < q (perihelion) < 1.3 AU"
        }
    },
    "is_sentry_object": false
}